[
    {
        "Altitude(m)": 610405.3498833348,
        "Argument of Periapsis(deg)": 0.0,
        "Eccentricity": 0.0,
        "Inclination(deg)": 60.0,
        "Latitude(deg)": 52.111345652600676,
        "Longitude(deg)": 102.47744093475309,
        "Mean Anomaly(deg)": 114.54549999999999,
        "RAAN(deg)": 70.0,
        "Satellite Name": "Test1 315",
        "Satellite Number": 315,
        "Semi-Major Axis(m)": 6980739.136638005,
        "Time(s)": 0
    },
    {
        "Altitude(m)": 610321.9228556743,
        "Argument of Periapsis(deg)": 0.00010418945913296404,
        "Eccentricity": 0.0,
        "Inclination(deg)": 60.0,
        "Latitude(deg)": 51.74606038640687,
        "Longitude(deg)": 103.24633571436972,
        "Mean Anomaly(deg)": 115.16560614546182,
        "RAAN(deg)": 69.99957995086027,
        "Satellite Name": "Test1 315",
        "Satellite Number": 315,
        "Semi-Major Axis(m)": 6980739.136638005,
        "Time(s)": 10
    }
]